{
  "type": "FeatureCollection",
  "features": [
    {
      "type": "Feature",
      "properties": {
        "norad_id": 35840,
        "name": "COSMOS 2251 DEB",
        "group": "cosmos-2251-debris",
        "lat": 0.6371236877314466,
        "lon": -2.600454185071197,
        "alt_km": 777.2703243947253,
        "timestamp": "2025-12-02T06:27:53.408159+00:00",
        "meta_object_name": "COSMOS 2251 DEB",
        "meta_object_id": "1993-036ATN",
        "meta_epoch": "2025-11-30T06:53:03.692256",
        "meta_mean_motion": 14.3763162,
        "meta_eccentricity": 0.01161544,
        "meta_inclination": 73.9309,
        "meta_ra_of_asc_node": 181.2553,
        "meta_arg_of_pericenter": 86.7922,
        "meta_mean_anomaly": 274.6513,
        "meta_ephemeris_type": 0,
        "meta_classification_type": "U",
        "meta_norad_cat_id": 35840,
        "meta_element_set_no": 999,
        "meta_rev_at_epoch": 85112,
        "meta_bstar": 0.0016678167,
        "meta_mean_motion_dot": 5.39e-05,
        "meta_mean_motion_ddot": 0,
        "tle_line1": "1 35840U 93036ATN 25334.28684829  .00005390  00000+0  16678-2 0  9991",
        "tle_line2": "2 35840  73.9309 181.2553 0116154  86.7922 274.6513 14.37631620851128"
      },
      "geometry": {
        "type": "Point",
        "coordinates": [
          -2.600454185071197,
          0.6371236877314466
        ]
      }
    },
    {
      "type": "Feature",
      "properties": {
        "norad_id": 35883,
        "name": "COSMOS 2251 DEB",
        "group": "cosmos-2251-debris",
        "lat": 51.30690095881292,
        "lon": 110.68270463909498,
        "alt_km": 776.9558340571903,
        "timestamp": "2025-12-02T06:27:53.408169+00:00",
        "meta_object_name": "COSMOS 2251 DEB",
        "meta_object_id": "1993-036ATW",
        "meta_epoch": "2025-11-29T02:53:29.744160",
        "meta_mean_motion": 14.50541303,
        "meta_eccentricity": 0.00841977,
        "meta_inclination": 74.0237,
        "meta_ra_of_asc_node": 95.6459,
        "meta_arg_of_pericenter": 227.8885,
        "meta_mean_anomaly": 309.997,
        "meta_ephemeris_type": 0,
        "meta_classification_type": "U",
        "meta_norad_cat_id": 35883,
        "meta_element_set_no": 999,
        "meta_rev_at_epoch": 62188,
        "meta_bstar": 0.00041574036,
        "meta_mean_motion_dot": 1.674e-05,
        "meta_mean_motion_ddot": 0,
        "tle_line1": "1 35883U 93036ATW 25333.12048315  .00001674  00000+0  41574-3 0  9999",
        "tle_line2": "2 35883  74.0237  95.6459 0084197 227.8885 309.9970 14.50541303621887"
      },
      "geometry": {
        "type": "Point",
        "coordinates": [
          110.68270463909498,
          51.30690095881292
        ]
      }
    },
    {
      "type": "Feature",
      "properties": {
        "norad_id": 35884,
        "name": "COSMOS 2251 DEB",
        "group": "cosmos-2251-debris",
        "lat": -4.977742870559395,
        "lon": -6.466886752065498,
        "alt_km": 877.5342366545983,
        "timestamp": "2025-12-02T06:27:53.408179+00:00",
        "meta_object_name": "COSMOS 2251 DEB",
        "meta_object_id": "1993-036ATX",
        "meta_epoch": "2025-12-01T08:35:40.210656",
        "meta_mean_motion": 14.25555603,
        "meta_eccentricity": 0.01094526,
        "meta_inclination": 73.9914,
        "meta_ra_of_asc_node": 356.6148,
        "meta_arg_of_pericenter": 146.5236,
        "meta_mean_anomaly": 214.2894,
        "meta_ephemeris_type": 0,
        "meta_classification_type": "U",
        "meta_norad_cat_id": 35884,
        "meta_element_set_no": 999,
        "meta_rev_at_epoch": 22195,
        "meta_bstar": 0.0012758145,
        "meta_mean_motion_dot": 3.19e-05,
        "meta_mean_motion_ddot": 0,
        "tle_line1": "1 35884U 93036ATX 25335.35810429  .00003190  00000+0  12758-2 0  9996",
        "tle_line2": "2 35884  73.9914 356.6148 0109452 146.5236 214.2894 14.25555603221959"
      },
      "geometry": {
        "type": "Point",
        "coordinates": [
          -6.466886752065498,
          -4.977742870559395
        ]
      }
    },
    {
      "type": "Feature",
      "properties": {
        "norad_id": 35885,
        "name": "COSMOS 2251 DEB",
        "group": "cosmos-2251-debris",
        "lat": 54.6644094866201,
        "lon": -22.09864244403055,
        "alt_km": 746.0930269450164,
        "timestamp": "2025-12-02T06:27:53.408189+00:00",
        "meta_object_name": "COSMOS 2251 DEB",
        "meta_object_id": "1993-036ATY",
        "meta_epoch": "2025-12-01T06:48:48.094272",
        "meta_mean_motion": 14.37483132,
        "meta_eccentricity": 0.0022714,
        "meta_inclination": 74.0277,
        "meta_ra_of_asc_node": 315.8881,
        "meta_arg_of_pericenter": 39.4634,
        "meta_mean_anomaly": 320.8169,
        "meta_ephemeris_type": 0,
        "meta_classification_type": "U",
        "meta_norad_cat_id": 35885,
        "meta_element_set_no": 999,
        "meta_rev_at_epoch": 64851,
        "meta_bstar": 0.00036957,
        "meta_mean_motion_dot": 1.083e-05,
        "meta_mean_motion_ddot": 0,
        "tle_line1": "1 35885U 93036ATY 25335.28388998  .00001083  00000+0  36957-3 0  9997",
        "tle_line2": "2 35885  74.0277 315.8881 0022714  39.4634 320.8169 14.37483132648516"
      },
      "geometry": {
        "type": "Point",
        "coordinates": [
          -22.09864244403055,
          54.6644094866201
        ]
      }
    },
    {
      "type": "Feature",
      "properties": {
        "norad_id": 35888,
        "name": "COSMOS 2251 DEB",
        "group": "cosmos-2251-debris",
        "lat": -48.04215811501127,
        "lon": -1.9687002486014016,
        "alt_km": 737.1886440804346,
        "timestamp": "2025-12-02T06:27:53.408199+00:00",
        "meta_object_name": "COSMOS 2251 DEB",
        "meta_object_id": "1993-036AUB",
        "meta_epoch": "2025-12-01T09:17:40.756128",
        "meta_mean_motion": 14.58253724,
        "meta_eccentricity": 0.00487962,
        "meta_inclination": 74.0345,
        "meta_ra_of_asc_node": 18.2767,
        "meta_arg_of_pericenter": 153.7479,
        "meta_mean_anomaly": 206.6176,
        "meta_ephemeris_type": 0,
        "meta_classification_type": "U",
        "meta_norad_cat_id": 35888,
        "meta_element_set_no": 999,
        "meta_rev_at_epoch": 86108,
        "meta_bstar": 0.00046222233,
        "meta_mean_motion_dot": 2.141e-05,
        "meta_mean_motion_ddot": 0,
        "tle_line1": "1 35888U 93036AUB 25335.38727727  .00002141  00000+0  46222-3 0  9990",
        "tle_line2": "2 35888  74.0345  18.2767 0048796 153.7479 206.6176 14.58253724861080"
      },
      "geometry": {
        "type": "Point",
        "coordinates": [
          -1.9687002486014016,
          -48.04215811501127
        ]
      }
    },
    {
      "type": "Feature",
      "properties": {
        "norad_id": 35890,
        "name": "COSMOS 2251 DEB",
        "group": "cosmos-2251-debris",
        "lat": 25.87387352935899,
        "lon": -89.24515587866938,
        "alt_km": 663.5489475621716,
        "timestamp": "2025-12-02T06:27:53.408209+00:00",
        "meta_object_name": "COSMOS 2251 DEB",
        "meta_object_id": "1993-036AUD",
        "meta_epoch": "2025-11-26T13:34:44.411520",
        "meta_mean_motion": 14.57052696,
        "meta_eccentricity": 0.00530638,
        "meta_inclination": 73.9365,
        "meta_ra_of_asc_node": 273.6166,
        "meta_arg_of_pericenter": 40.9206,
        "meta_mean_anomaly": 319.5921,
        "meta_ephemeris_type": 0,
        "meta_classification_type": "U",
        "meta_norad_cat_id": 35890,
        "meta_element_set_no": 999,
        "meta_rev_at_epoch": 64915,
        "meta_bstar": 0.0024341632,
        "meta_mean_motion_dot": 0.00011157,
        "meta_mean_motion_ddot": 0,
        "tle_line1": "1 35890U 93036AUD 25330.56579180  .00011157  00000+0  24342-2 0  9991",
        "tle_line2": "2 35890  73.9365 273.6166 0053063  40.9206 319.5921 14.57052696649159"
      },
      "geometry": {
        "type": "Point",
        "coordinates": [
          -89.24515587866938,
          25.87387352935899
        ]
      }
    },
    {
      "type": "Feature",
      "properties": {
        "norad_id": 35891,
        "name": "COSMOS 2251 DEB",
        "group": "cosmos-2251-debris",
        "lat": -30.850827242671052,
        "lon": 106.44211365475729,
        "alt_km": 470.88746144605466,
        "timestamp": "2025-12-02T06:27:53.408218+00:00",
        "meta_object_name": "COSMOS 2251 DEB",
        "meta_object_id": "1993-036AUE",
        "meta_epoch": "2025-11-28T16:23:30.685920",
        "meta_mean_motion": 15.31601125,
        "meta_eccentricity": 0.00469718,
        "meta_inclination": 73.9883,
        "meta_ra_of_asc_node": 123.9917,
        "meta_arg_of_pericenter": 255.1212,
        "meta_mean_anomaly": 104.4787,
        "meta_ephemeris_type": 0,
        "meta_classification_type": "U",
        "meta_norad_cat_id": 35891,
        "meta_element_set_no": 999,
        "meta_rev_at_epoch": 67005,
        "meta_bstar": 0.0013260761,
        "meta_mean_motion_dot": 0.00042078,
        "meta_mean_motion_ddot": 0,
        "tle_line1": "1 35891U 93036AUE 25332.68299405  .00042078  00000+0  13261-2 0  9990",
        "tle_line2": "2 35891  73.9883 123.9917 0046971 255.1212 104.4787 15.31601125670057"
      },
      "geometry": {
        "type": "Point",
        "coordinates": [
          106.44211365475729,
          -30.850827242671052
        ]
      }
    }
  ]
}